[{"OBJECT_NAME":"CENTAURI-8","OBJECT_ID":"2025-009DK","EPOCH":"2026-03-09T17:25:58.526112","MEAN_MOTION":14.9722833,"ECCENTRICITY":0.00030201,"INCLINATION":97.7096,"RA_OF_ASC_NODE":150.1876,"ARG_OF_PERICENTER":109.5881,"MEAN_ANOMALY":250.5667,"EPHEMERIS_TYPE":0,"CLASSIFICATION_TYPE":"U","NORAD_CAT_ID":62714,"ELEMENT_SET_NO":999,"REV_AT_EPOCH":6259,"BSTAR":0.00038891127,"MEAN_MOTION_DOT":4.445e-5,"MEAN_MOTION_DDOT":0},{"OBJECT_NAME":"STARLINK-34641","OBJECT_ID":"2025-150H","EPOCH":"2026-03-09T14:17:11.372064","MEAN_MOTION":14.98334402,"ECCENTRICITY":0.0003474,"INCLINATION":70.0015,"RA_OF_ASC_NODE":134.6559,"ARG_OF_PERICENTER":269.7987,"MEAN_ANOMALY":90.2774,"EPHEMERIS_TYPE":0,"CLASSIFICATION_TYPE":"U","NORAD_CAT_ID":64797,"ELEMENT_SET_NO":999,"REV_AT_EPOCH":3733,"BSTAR":0.00031486,"MEAN_MOTION_DOT":3.666e-5,"MEAN_MOTION_DDOT":0}]
